STARLINK-30346          
1 57704U 23129G   26068.15051516  .00000797  00000+0  39428-4 0  9998
2 57704  43.0061 120.6543 0001882 251.8694 108.1953 15.26732251140460
TRANSPORTER-13 OBJECT AH
1 63241U 25052AH  26068.64880921  .00014108  00000+0  55931-3 0  9999
2 63241  97.3962 323.1443 0008070 138.7508 221.4341 15.25468797 54753
